{
  "type": "FeatureCollection",
  "features": [
    {
      "type": "Feature",
      "properties": {
        "norad_id": 66520,
        "name": "STARLINK-35952",
        "group": "last-30-days",
        "lat": -42.240371831077006,
        "lon": -24.597536474256916,
        "alt_km": 400.19896382439765,
        "timestamp": "2025-12-08T13:49:30.576633+00:00",
        "meta_object_name": "STARLINK-35952",
        "meta_object_id": "2025-265E",
        "meta_epoch": "2025-12-08T06:00:02.999808",
        "meta_mean_motion": 15.57920577,
        "meta_eccentricity": 0.00010757,
        "meta_inclination": 43.0002,
        "meta_ra_of_asc_node": 80.3121,
        "meta_arg_of_pericenter": 264.3342,
        "meta_mean_anomaly": 326.2666,
        "meta_ephemeris_type": 0,
        "meta_classification_type": "U",
        "meta_norad_cat_id": 66520,
        "meta_element_set_no": 999,
        "meta_rev_at_epoch": 427,
        "meta_bstar": -0.029280606,
        "meta_mean_motion_dot": -0.0197449,
        "meta_mean_motion_ddot": 0,
        "tle_line1": "1 66520U 25265E   25342.25003472 -.01974490  00000+0 -29281-1 0  9996",
        "tle_line2": "2 66520  43.0002  80.3121 0001075 264.3342 326.2666 15.57920577  4274"
      },
      "geometry": {
        "type": "Point",
        "coordinates": [
          -24.597536474256916,
          -42.240371831077006
        ]
      }
    },
    {
      "type": "Feature",
      "properties": {
        "norad_id": 66521,
        "name": "STARLINK-35915",
        "group": "last-30-days",
        "lat": -42.504937338441756,
        "lon": -22.04061007995109,
        "alt_km": 400.204595251872,
        "timestamp": "2025-12-08T13:49:30.576644+00:00",
        "meta_object_name": "STARLINK-35915",
        "meta_object_id": "2025-265F",
        "meta_epoch": "2025-12-08T06:00:02.999808",
        "meta_mean_motion": 15.5792239,
        "meta_eccentricity": 0.00010893,
        "meta_inclination": 43.0005,
        "meta_ra_of_asc_node": 80.307,
        "meta_arg_of_pericenter": 269.5877,
        "meta_mean_anomaly": 322.9264,
        "meta_ephemeris_type": 0,
        "meta_classification_type": "U",
        "meta_norad_cat_id": 66521,
        "meta_element_set_no": 999,
        "meta_rev_at_epoch": 427,
        "meta_bstar": -0.029283129,
        "meta_mean_motion_dot": -0.01974767,
        "meta_mean_motion_ddot": 0,
        "tle_line1": "1 66521U 25265F   25342.25003472 -.01974767  00000+0 -29283-1 0  9996",
        "tle_line2": "2 66521  43.0005  80.3070 0001089 269.5877 322.9264 15.57922390  4278"
      },
      "geometry": {
        "type": "Point",
        "coordinates": [
          -22.04061007995109,
          -42.504937338441756
        ]
      }
    },
    {
      "type": "Feature",
      "properties": {
        "norad_id": 66522,
        "name": "STARLINK-35946",
        "group": "last-30-days",
        "lat": -42.711756839412644,
        "lon": -19.456791749330225,
        "alt_km": 400.131332625484,
        "timestamp": "2025-12-08T13:49:30.576655+00:00",
        "meta_object_name": "STARLINK-35946",
        "meta_object_id": "2025-265G",
        "meta_epoch": "2025-12-08T06:00:02.999808",
        "meta_mean_motion": 15.57926067,
        "meta_eccentricity": 0.00012127,
        "meta_inclination": 43,
        "meta_ra_of_asc_node": 80.3012,
        "meta_arg_of_pericenter": 268.0183,
        "meta_mean_anomaly": 326.4154,
        "meta_ephemeris_type": 0,
        "meta_classification_type": "U",
        "meta_norad_cat_id": 66522,
        "meta_element_set_no": 999,
        "meta_rev_at_epoch": 427,
        "meta_bstar": -0.029443251,
        "meta_mean_motion_dot": -0.01984555,
        "meta_mean_motion_ddot": 0,
        "tle_line1": "1 66522U 25265G   25342.25003472 -.01984555  00000+0 -29443-1 0  9991",
        "tle_line2": "2 66522  43.0000  80.3012 0001212 268.0183 326.4154 15.57926067  4274"
      },
      "geometry": {
        "type": "Point",
        "coordinates": [
          -19.456791749330225,
          -42.711756839412644
        ]
      }
    },
    {
      "type": "Feature",
      "properties": {
        "norad_id": 66523,
        "name": "STARLINK-35969",
        "group": "last-30-days",
        "lat": -42.860539531874366,
        "lon": -16.86057323738693,
        "alt_km": 400.1004810394734,
        "timestamp": "2025-12-08T13:49:30.576666+00:00",
        "meta_object_name": "STARLINK-35969",
        "meta_object_id": "2025-265H",
        "meta_epoch": "2025-12-08T06:00:02.999808",
        "meta_mean_motion": 15.57923964,
        "meta_eccentricity": 0.0001278,
        "meta_inclination": 43.0003,
        "meta_ra_of_asc_node": 80.2961,
        "meta_arg_of_pericenter": 271.0003,
        "meta_mean_anomaly": 325.3541,
        "meta_ephemeris_type": 0,
        "meta_classification_type": "U",
        "meta_norad_cat_id": 66523,
        "meta_element_set_no": 999,
        "meta_rev_at_epoch": 427,
        "meta_bstar": -0.029437222,
        "meta_mean_motion_dot": -0.01984105,
        "meta_mean_motion_ddot": 0,
        "tle_line1": "1 66523U 25265H   25342.25003472 -.01984105  00000+0 -29437-1 0  9996",
        "tle_line2": "2 66523  43.0003  80.2961 0001278 271.0003 325.3541 15.57923964  4278"
      },
      "geometry": {
        "type": "Point",
        "coordinates": [
          -16.86057323738693,
          -42.860539531874366
        ]
      }
    },
    {
      "type": "Feature",
      "properties": {
        "norad_id": 66524,
        "name": "STARLINK-35687",
        "group": "last-30-days",
        "lat": -42.94985349448281,
        "lon": -14.255551865180893,
        "alt_km": 400.21753993379025,
        "timestamp": "2025-12-08T13:49:30.576675+00:00",
        "meta_object_name": "STARLINK-35687",
        "meta_object_id": "2025-265J",
        "meta_epoch": "2025-12-08T06:00:02.999808",
        "meta_mean_motion": 15.57922971,
        "meta_eccentricity": 0.00010989,
        "meta_inclination": 43.0003,
        "meta_ra_of_asc_node": 80.2914,
        "meta_arg_of_pericenter": 267.9674,
        "meta_mean_anomaly": 330.3017,
        "meta_ephemeris_type": 0,
        "meta_classification_type": "U",
        "meta_norad_cat_id": 66524,
        "meta_element_set_no": 999,
        "meta_rev_at_epoch": 427,
        "meta_bstar": -0.029388501,
        "meta_mean_motion_dot": -0.01981039,
        "meta_mean_motion_ddot": 0,
        "tle_line1": "1 66524U 25265J   25342.25003472 -.01981039  00000+0 -29389-1 0  9996",
        "tle_line2": "2 66524  43.0003  80.2914 0001098 267.9674 330.3017 15.57922971  4276"
      },
      "geometry": {
        "type": "Point",
        "coordinates": [
          -14.255551865180893,
          -42.94985349448281
        ]
      }
    },
    {
      "type": "Feature",
      "properties": {
        "norad_id": 66525,
        "name": "STARLINK-35975",
        "group": "last-30-days",
        "lat": -42.979552256236914,
        "lon": -11.641509370861074,
        "alt_km": 400.19991246062455,
        "timestamp": "2025-12-08T13:49:30.576687+00:00",
        "meta_object_name": "STARLINK-35975",
        "meta_object_id": "2025-265K",
        "meta_epoch": "2025-12-08T06:00:02.999808",
        "meta_mean_motion": 15.57918655,
        "meta_eccentricity": 0.00011104,
        "meta_inclination": 43.0001,
        "meta_ra_of_asc_node": 80.2881,
        "meta_arg_of_pericenter": 264.6224,
        "meta_mean_anomaly": 335.5633,
        "meta_ephemeris_type": 0,
        "meta_classification_type": "U",
        "meta_norad_cat_id": 66525,
        "meta_element_set_no": 999,
        "meta_rev_at_epoch": 427,
        "meta_bstar": -0.029202392,
        "meta_mean_motion_dot": -0.01969762,
        "meta_mean_motion_ddot": 0,
        "tle_line1": "1 66525U 25265K   25342.25003472 -.01969762  00000+0 -29202-1 0  9990",
        "tle_line2": "2 66525  43.0001  80.2881 0001110 264.6224 335.5633 15.57918655  4273"
      },
      "geometry": {
        "type": "Point",
        "coordinates": [
          -11.641509370861074,
          -42.979552256236914
        ]
      }
    },
    {
      "type": "Feature",
      "properties": {
        "norad_id": 66526,
        "name": "STARLINK-35932",
        "group": "last-30-days",
        "lat": -42.949910593539045,
        "lon": -9.029761741183137,
        "alt_km": 400.19897778639097,
        "timestamp": "2025-12-08T13:49:30.576697+00:00",
        "meta_object_name": "STARLINK-35932",
        "meta_object_id": "2025-265L",
        "meta_epoch": "2025-12-08T06:00:02.999808",
        "meta_mean_motion": 15.57917802,
        "meta_eccentricity": 0.00011151,
        "meta_inclination": 43.0002,
        "meta_ra_of_asc_node": 80.283,
        "meta_arg_of_pericenter": 264.1165,
        "meta_mean_anomaly": 337.9871,
        "meta_ephemeris_type": 0,
        "meta_classification_type": "U",
        "meta_norad_cat_id": 66526,
        "meta_element_set_no": 999,
        "meta_rev_at_epoch": 416,
        "meta_bstar": -0.0291814,
        "meta_mean_motion_dot": -0.01968468,
        "meta_mean_motion_ddot": 0,
        "tle_line1": "1 66526U 25265L   25342.25003472 -.01968468  00000+0 -29181-1 0  9999",
        "tle_line2": "2 66526  43.0002  80.2830 0001115 264.1165 337.9871 15.57917802  4164"
      },
      "geometry": {
        "type": "Point",
        "coordinates": [
          -9.029761741183137,
          -42.949910593539045
        ]
      }
    }
  ]
}